NORAD_CAT_ID,OBJECT_NAME,OBJECT_TYPE,EPOCH,MEAN_MOTION,ECCENTRICITY,INCLINATION,RA_OF_ASC_NODE,ARG_OF_PERICENTER,MEAN_ANOMALY,BSTAR,MEAN_MOTION_DOT,MEAN_MOTION_DDOT,TLE_LINE0,TLE_LINE1,TLE_LINE2,SEMIMAJOR_AXIS,PERIOD,APOGEE,PERIGEE,DECAYED
54088.0,STARLINK-5153,PAYLOAD,2022-12-01 14:00:01,15.69515265,0.0003517,53.2175,300.1805,271.8069,188.6515,-0.010708,-0.01146231,0.0,0 STARLINK-5153,1 54088U 22136AP  22335.58334491 -.01146231  00000-0 -10708-1 0  9998,2 54088  53.2175 300.1805 0003517 271.8069 188.6515 15.69515265  1309,6738.420999999999,91.748,362.656,357.916,0.0
54088.0,STARLINK-5153,PAYLOAD,2022-12-01 22:00:00,15.68757221,0.0002732,53.2169,298.5411,286.6426,257.7691,-0.011779,-0.01233917,0.0,0 STARLINK-5153,1 54088U 22136AP  22335.91667824 -.01233917  00000-0 -11779-1 0  9991,2 54088  53.2169 298.5411 0002732 286.6426 257.7691 15.68757221  1306,6740.592,91.792,364.298,360.615,0.0
54088.0,STARLINK-5153,PAYLOAD,2022-12-02 00:00:00,15.68479115,0.0002212,53.2172,298.1316,292.1816,3.1092,-0.010808,-0.01111482,0.0,0 STARLINK-5153,1 54088U 22136AP  22336.00001157 -.01111482  00000-0 -10808-1 0  9997,2 54088  53.2172 298.1316 0002212 292.1816   3.1092 15.68479115  7169,6741.388000000001,91.809,364.745,361.762,0.0
54088.0,STARLINK-5153,PAYLOAD,2022-12-02 14:00:01,15.67056176,0.0001059,53.217,295.2684,46.5052,302.9764,-0.011514,-0.01133924,0.0,0 STARLINK-5153,1 54088U 22136AP  22336.58334491 -.01133924  00000-0 -11514-1 0  9990,2 54088  53.2170 295.2684 0001059  46.5052 302.9764 15.67056176  1307,6745.469,91.892,368.048,366.619,0.0
54088.0,STARLINK-5153,PAYLOAD,2022-12-02 16:00:00,15.66853683,0.0001277,53.2174,294.8589,51.0149,48.8212,-0.01162,-0.0113492,0.0,0 STARLINK-5153,1 54088U 22136AP  22336.66667824 -.01134920  00000-0 -11620-1 0  9993,2 54088  53.2174 294.8589 0001277  51.0149  48.8212 15.66853683  7273,6746.05,91.904,368.776,367.05300000000005,0.0
54088.0,STARLINK-5153,PAYLOAD,2022-12-02 22:00:00,15.66269967,0.0001277,53.2165,293.6345,56.20399999999999,14.3133,-0.012293,-0.01168871,0.0,0 STARLINK-5153,1 54088U 22136AP  22336.91667824 -.01168871  00000-0 -12293-1 0  9990,2 54088  53.2165 293.6345 0001277  56.2040  14.3133 15.66269967  1301,6747.726,91.938,370.453,368.729,0.0
54088.0,STARLINK-5153,PAYLOAD,2022-12-03 14:00:01,15.64637348,0.000123,53.217,290.3741,59.7424,169.9454,-0.013077,-0.01164612,0.0,0 STARLINK-5153,1 54088U 22136AP  22337.58334491 -.01164612  00000-0 -13077-1 0  9995,2 54088  53.2170 290.3741 0001230  59.7424 169.9454 15.64637348  7415,6752.419,92.034,375.114,373.453,0.0
54088.0,STARLINK-5153,PAYLOAD,2022-12-03 22:00:00,15.63832863,0.0001299,53.2169,288.7456,56.4808,251.3187,-0.013637,-0.01175017,0.0,0 STARLINK-5153,1 54088U 22136AP  22337.91667824 -.01175017  00000-0 -13637-1 0  9994,2 54088  53.2169 288.7456 0001299  56.4808 251.3187 15.63832863  1301,6754.735,92.081,377.477,375.722,0.0
54088.0,STARLINK-5153,PAYLOAD,2022-12-04 14:00:01,15.62183131,0.0001291999999999,53.2169,285.4967,47.9277,53.1824,-0.014151,-0.0114546,0.0,0 STARLINK-5153,1 54088U 22136AP  22338.58334491 -.01145460  00000-0 -14151-1 0  9990,2 54088  53.2169 285.4967 0001292  47.9277  53.1824 15.62183131  1302,6759.489000000001,92.179,382.228,380.481,0.0
54088.0,STARLINK-5153,PAYLOAD,2022-12-04 22:00:00,15.61371612,0.0001429,53.2167,283.8745,49.4037,126.8879,-0.014628,-0.0114698,0.0,0 STARLINK-5153,1 54088U 22136AP  22338.91667824 -.01146980  00000-0 -14628-1 0  9993,2 54088  53.2167 283.8745 0001429  49.4037 126.8879 15.61371612  7620,6761.831,92.227,384.662,382.73,0.0
54088.0,STARLINK-5153,PAYLOAD,2022-12-05 14:00:01,15.597587400000002,0.0001105,53.2169,280.6375,58.9278,264.85400000000004,-0.015877,-0.01167237,0.0,0 STARLINK-5153,1 54088U 22136AP  22339.58335648 -.01167237  00000-0 -15877-1 0  9998,2 54088  53.2169 280.6375 0001105  58.9278 264.8540 15.59758740  1304,6766.4919999999975,92.322,389.104,387.609,0.0
54088.0,STARLINK-5153,PAYLOAD,2022-12-05 22:00:01,15.58921217,0.000119,53.2176,279.0205,56.5779,339.4656,-0.015888,-0.0113459,0.0,0 STARLINK-5153,1 54088U 22136AP  22339.91668981 -.01134590  00000-0 -15888-1 0  9992,2 54088  53.2176 279.0205 0001190  56.5779 339.4656 15.58921217  1307,6768.915,92.372,391.586,389.975,0.0
54088.0,STARLINK-5153,PAYLOAD,2022-12-06 00:00:00,15.58715844,0.0001392,53.2175,278.6175,56.6719,87.2166,-0.015964,-0.0113151,0.0,0 STARLINK-5153,1 54088U 22136AP  22340.00001157 -.01131510  00000-0 -15964-1 0  9994,2 54088  53.2175 278.6175 0001392  56.6719  87.2166 15.58715844  7796,6769.51,92.384,392.317,390.432,0.0
54088.0,STARLINK-5153,PAYLOAD,2022-12-06 14:00:01,15.57297481,0.0001301,53.2173,275.7954,65.6507,111.9557,-0.016969,-0.01138933,0.0,0 STARLINK-5153,1 54088U 22136AP  22340.58335648 -.01138933  00000-0 -16969-1 0  9994,2 54088  53.2173 275.7954 0001301  65.6507 111.9557 15.57297481  1303,6773.619000000002,92.468,396.366,394.603,0.0
54088.0,STARLINK-5153,PAYLOAD,2022-12-06 22:00:00,15.56480674,0.000125,53.2173,274.1854,61.1956,185.6632,-0.017419,-0.01134255,0.0,0 STARLINK-5153,1 54088U 22136AP  22340.91667824 -.01134255  00000-0 -17419-1 0  9999,2 54088  53.2173 274.1854 0001250  61.1956 185.6632 15.56480674  1306,6775.989000000001,92.516,398.701,397.007,0.0
54088.0,STARLINK-5153,PAYLOAD,2022-12-07 02:00:01,15.55969458,0.0001252,53.2172,273.3825,69.9829,31.2192,-0.015397,-0.00996252,0.0,0 STARLINK-5153,1 54088U 22136AP  22341.08334491 -.00996252  00000-0 -15397-1 0  9994,2 54088  53.2172 273.3825 0001252  69.9829  31.2192 15.55969458  7967,6777.473000000001,92.547,400.187,398.489,0.0
54088.0,STARLINK-5153,PAYLOAD,2022-12-07 14:00:01,15.54484026,0.0001095,53.2174,270.9712,54.0979,328.6413,-0.009836,-0.00610721,0.0,0 STARLINK-5153,1 54088U 22136AP  22341.58334491 -.00610721  00000-0 -98360-2 0  9995,2 54088  53.2174 270.9712 0001095  54.0979 328.6413 15.54484026  8044,6781.79,92.635,404.398,402.912,0.0
54088.0,STARLINK-5153,PAYLOAD,2022-12-07 22:00:00,15.53108052,0.0001475,53.2164,269.3665,63.3842,26.0593,0.0025296,0.00164037,0.0,0 STARLINK-5153,1 54088U 22136AP  22341.91667824  .00164037  00000-0  25296-2 0  9991,2 54088  53.2164 269.3665 0001475  63.3842  26.0593 15.53108052  1307,6785.795,92.717,408.661,406.659,0.0
54088.0,STARLINK-5153,PAYLOAD,2022-12-08 00:00:00,15.53595652,0.0001095,53.2179,268.9663,80.9997,114.4946,-0.013175,-0.00786038,0.0,0 STARLINK-5153,1 54088U 22136AP  22342.00001157 -.00786038  00000-0 -13175-1 0  9998,2 54088  53.2179 268.9663 0001095  80.9997 114.4946 15.53595652  8105,6784.375,92.688,406.983,405.497,0.0
54088.0,STARLINK-5153,PAYLOAD,2022-12-08 08:00:01,15.53020963,0.0001227,53.2171,267.3661,68.0692,192.4726,-0.01974,-0.01131329,0.0,0 STARLINK-5153,1 54088U 22136AP  22342.33334491 -.01131329  00000-0 -19740-1 0  9996,2 54088  53.2171 267.3661 0001227  68.0692 192.4726 15.53020963  8159,6786.049,92.723,408.746,407.081,0.0
54088.0,STARLINK-5153,PAYLOAD,2022-12-08 14:00:01,15.52192579,0.0001503,53.2177,266.165,65.8741,153.0009,-0.014498,-0.00819041,0.0,0 STARLINK-5153,1 54088U 22136AP  22342.58334491 -.00819041  00000-0 -14498-1 0  9991,2 54088  53.2177 266.1650 0001503  65.8741 153.0009 15.52192579  1306,6788.4630000000025,92.772,411.348,409.307,0.0
54088.0,STARLINK-5153,PAYLOAD,2022-12-08 22:00:01,15.51596324,0.0001256,53.2175,264.5669,60.7403,221.5441,-0.020772,-0.01130569,0.0,0 STARLINK-5153,1 54088U 22136AP  22342.91668981 -.01130569  00000-0 -20772-1 0  9996,2 54088  53.2175 264.5669 0001256  60.7403 221.5441 15.51596324  1306,6790.2019999999975,92.808,412.92,411.214,0.0
54088.0,STARLINK-5153,PAYLOAD,2022-12-09 06:00:02,15.50669429,0.0001082,53.2169,262.973,69.6551,275.1154,-0.014961,-0.00801533,0.0,0 STARLINK-5153,1 54088U 22136AP  22343.25002315 -.00801533  00000-0 -14961-1 0  9995,2 54088  53.2169 262.9730 0001082  69.6551 275.1154 15.50669429  8308,6792.906999999997,92.863,415.507,414.037,0.0
54088.0,STARLINK-5153,PAYLOAD,2022-12-09 14:00:01,15.50099079,0.0001036,53.2174,261.3764,48.6256,357.5789,-0.010408,-0.00555267,0.0,0 STARLINK-5153,1 54088U 22136AP  22343.58334491 -.00555267  00000-0 -10408-1 0  9996,2 54088  53.2174 261.3764 0001036  48.6256 357.5789 15.50099079  1302,6794.574000000001,92.897,417.142,415.735,0.0
54088.0,STARLINK-5153,PAYLOAD,2022-12-09 16:00:00,15.50014418,0.0001172,53.2173,260.9773,51.1748,100.3054,-0.01111,-0.00588445,0.0,0 STARLINK-5153,1 54088U 22136AP  22343.66667824 -.00588445  00000-0 -11110-1 0  9999,2 54088  53.2173 260.9773 0001172  51.1748 100.3054 15.50014418  8368,6794.821,92.902,417.482,415.89,0.0
54088.0,STARLINK-5153,PAYLOAD,2022-12-10 00:00:00,15.49658512,0.0001444,53.2173,259.3861,60.4276,151.8746,-0.021694,-0.01104327,0.0,0 STARLINK-5153,1 54088U 22136AP  22344.00001157 -.01104327  00000-0 -21694-1 0  9991,2 54088  53.2173 259.3861 0001444  60.4276 151.8746 15.49658512  8411,6795.861,92.924,418.708,416.745,0.0
54088.0,STARLINK-5153,PAYLOAD,2022-12-10 14:00:01,15.48249089,0.0001418,53.2175,256.6004,54.6387,172.3022,-0.023267,-0.01141133,0.0,0 STARLINK-5153,1 54088U 22136AP  22344.58334491 -.01141133  00000-0 -23267-1 0  9998,2 54088  53.2175 256.6004 0001418  54.6387 172.3022 15.48249089  1301,6799.985,93.008,422.814,420.886,0.0
54088.0,STARLINK-5153,PAYLOAD,2022-12-10 16:00:00,15.48045412,0.0001262,53.2173,256.203,51.8052,279.8407,-0.023448,-0.01141707,0.0,0 STARLINK-5153,1 54088U 22136AP  22344.66667824 -.01141707  00000-0 -23448-1 0  9994,2 54088  53.2173 256.2030 0001262  51.8052 279.8407 15.48045412  8524,6800.581,93.021,423.305,421.588,0.0
54088.0,STARLINK-5153,PAYLOAD,2022-12-11 00:00:00,15.47234451,0.0001481,53.2175,254.617,40.7214,349.1298,-0.024211,-0.01145553,0.0,0 STARLINK-5153,1 54088U 22136AP  22345.00001157 -.01145553  00000-0 -24211-1 0  9996,2 54088  53.2175 254.6170 0001481  40.7214 349.1298 15.47234451  1303,6802.956999999999,93.069,425.83,423.815,0.0
